GPS BIIR-2  (PRN 13)    
1 24876U 97035A   21161.42089206  .00000077  00000-0  00000-0 0  9997
2 24876  55.4737 170.1858 0048106  53.5500 306.9257  2.00562709175193
GPS BIIR-4  (PRN 20)    
1 26360U 00025A   21161.58737679 -.00000038  00000-0  00000-0 0  9999
2 26360  53.7686  94.2719 0060484 176.1959   1.0589  2.00790098154510
GPS BIIR-5  (PRN 28)    
1 26407U 00040A   21161.52801508 -.00000039  00000-0  00000-0 0  9996
2 26407  55.7270 288.0159 0177106 282.5608  86.0623  2.00557002153198
GPS BIIR-8  (PRN 16)    
1 27663U 03005A   21161.03790701 -.00000043  00000-0  00000-0 0  9998
2 27663  55.7792 287.8308 0120587  38.1025 113.4847  2.00559890134542
GPS BIIR-9  (PRN 21)    
1 27704U 03010A   21161.28227465 -.00000082  00000-0  00000-0 0  9992
2 27704  54.8520  38.4086 0242760 295.1867 245.9065  2.00563310133349
GPS BIIR-10 (PRN 22)    
1 28129U 03058A   21161.10740243 -.00000038  00000-0  00000-0 0  9992
2 28129  53.5798  96.9490 0072184 304.8555  54.4394  2.00546949128021
GPS BIIR-11 (PRN 19)    
1 28190U 04009A   21161.61462743 -.00000076  00000-0  00000-0 0  9991
2 28190  56.1864 348.6859 0090773 106.7955 257.9224  2.00568573126190
GPS BIIR-13 (PRN 02)    
1 28474U 04045A   21161.48363753 -.00000081  00000-0  00000-0 0  9998
2 28474  55.1865  38.4011 0204205 273.3471 271.8111  2.00561894121677
GPS BIIRM-1 (PRN 17)    
1 28874U 05038A   21161.56438517 -.00000076  00000-0  00000-0 0  9999
2 28874  56.2701 346.1017 0135504 270.2824  81.5127  2.00571685115079
GPS BIIRM-2 (PRN 31)    
1 29486U 06042A   21161.06424681  .00000056  00000-0  00000-0 0  9994
2 29486  54.7708 224.1001 0098623  13.8841 247.9819  2.00548601107627
GPS BIIRM-3 (PRN 12)    
1 29601U 06052A   21160.14359517 -.00000051  00000-0  00000-0 0  9993
2 29601  55.7758 286.7924 0081722  69.3460 291.5178  2.00557406106620
GPS BIIRM-4 (PRN 15)    
1 32260U 07047A   21159.45290162  .00000068  00000-0  00000-0 0  9992
2 32260  53.2341 156.0415 0130243  55.9510 305.2908  2.00568751100016
GPS BIIRM-5 (PRN 29)    
1 32384U 07062A   21160.77063646 -.00000078  00000-0  00000-0 0  9990
2 32384  56.3776 346.8483 0017209 128.5393 230.7657  2.00569733 98734
GPS BIIRM-6 (PRN 07)    
1 32711U 08012A   21161.35900645  .00000057  00000-0  00000-0 0  9990
2 32711  54.5238 223.1080 0151896 227.2346 131.5694  2.00553918 96990
GPS BIIRM-8 (PRN 05)    
1 35752U 09043A   21161.09321736 -.00000031  00000-0  00000-0 0  9995
2 35752  54.8038 100.5553 0059336  50.4430 129.1670  2.00538484 86591
GPS BIIF-1  (PRN 25)    
1 36585U 10022A   21160.92591104 -.00000039  00000-0  00000-0 0  9996
2 36585  55.0504 282.5417 0096885  54.8984 122.0131  2.00570241 80820
GPS BIIF-2  (PRN 01)    
1 37753U 11036A   21160.81495230 -.00000081  00000-0  00000-0 0  9998
2 37753  56.4097  43.2461 0107819  48.1421 133.8150  2.00563359 72502
GPS BIIF-3  (PRN 24)    
1 38833U 12053A   21160.54422132  .00000061  00000-0  00000-0 0  9996
2 38833  53.5730 218.6424 0109636  41.5572 319.3641  2.00556843 62666
GPS BIIF-4  (PRN 27)    
1 39166U 13023A   21160.40938030 -.00000080  00000-0  00000-0 0  9990
2 39166  55.9147 342.6633 0093183  34.8829 325.7389  2.00562903 59102
GPS BIIF-5  (PRN 30)    
1 39533U 14008A   21159.91189133  .00000050  00000-0  00000-0 0  9994
2 39533  53.6767 224.1385 0053586 203.6703 156.1686  2.00560794 52892
GPS BIIF-6  (PRN 06)    
1 39741U 14026A   21161.18882586 -.00000079  00000-0  00000-0 0  9991
2 39741  56.3785  42.7587 0023394 301.4352  58.3901  2.00552017 51770
GPS BIIF-7  (PRN 09)    
1 40105U 14045A   21161.27247910  .00000068  00000-0  00000-0 0  9991
2 40105  54.6278 161.6629 0016396 106.9636 253.2313  2.00552153 49310
GPS BIIF-8  (PRN 03)    
1 40294U 14068A   21161.14495067 -.00000027  00000-0  00000-0 0  9995
2 40294  55.5515 102.6745 0034107  46.3758 313.8714  2.00574350 48443
GPS BIIF-9  (PRN 26)    
1 40534U 15013A   21159.79142337 -.00000049  00000-0  00000-0 0  9994
2 40534  53.9578 280.1644 0058268  15.5674 344.6074  2.00575344 45037
GPS BIIF-10 (PRN 08)    
1 40730U 15033A   21161.44442535 -.00000077  00000-0  00000-0 0  9993
2 40730  55.4222 341.6275 0063510   1.2002 358.8247  2.00571553 43231
GPS BIIF-11 (PRN 10)    
1 41019U 15062A   21158.50091879 -.00000034  00000-0  00000-0 0  9993
2 41019  55.5432 102.6146 0067875 214.8017 144.7185  2.00563714 41011
GPS BIIF-12 (PRN 32)    
1 41328U 16007A   21160.58580242  .00000072  00000-0  00000-0 0  9995
2 41328  54.8551 162.2685 0051668 226.5208 133.0682  2.00562660 39067
GPS BIII-1  (PRN 04)    
1 43873U 18109A   21161.54691584  .00000071  00000-0  00000-0 0  9995
2 43873  55.0364 164.5711 0013274 202.4114  24.6345  2.00556234 18310
GPS BIII-2  (PRN 18)    
1 44506U 19056A   21161.34663880 -.00000079  00000-0  00000-0 0  9996
2 44506  55.4765  43.8866 0014526 174.4395 166.6075  2.00565805 13308
GPS BIII-3  (PRN 23)    
1 45854U 20041A   21160.45522304 -.00000034  00000-0  00000-0 0  9996
2 45854  55.2575 101.1871 0011014 159.3094 200.6996  2.00565890  7255
